[
    {
        "Altitude(m)": 559346.499330371,
        "Argument of Periapsis(deg)": 0.033114955553567506,
        "Eccentricity": 0.0,
        "Inclination(deg)": 53.0,
        "Latitude(deg)": -21.331181406774643,
        "Longitude(deg)": 163.0295974442871,
        "Mean Anomaly(deg)": 206.8216643378879,
        "RAAN(deg)": 69.95071684264008,
        "Satellite Name": "Starlink Shell 1 317",
        "Satellite Number": 317,
        "Semi-Major Axis(m)": 6931778.249405717,
        "Time(s)": 950
    },
    {
        "Altitude(m)": 559508.3648125904,
        "Argument of Periapsis(deg)": 0.03346353403307874,
        "Eccentricity": 0.0,
        "Inclination(deg)": 53.0,
        "Latitude(deg)": -21.811281253129224,
        "Longitude(deg)": 163.42290214445666,
        "Mean Anomaly(deg)": 207.44849554144463,
        "RAAN(deg)": 69.9501980725626,
        "Satellite Name": "Starlink Shell 1 317",
        "Satellite Number": 317,
        "Semi-Major Axis(m)": 6931778.249405717,
        "Time(s)": 960
    },
    {
        "Altitude(m)": 559671.4835274958,
        "Argument of Periapsis(deg)": 0.03381211251258998,
        "Eccentricity": 0.0,
        "Inclination(deg)": 53.0,
        "Latitude(deg)": -22.290187710913603,
        "Longitude(deg)": 163.8190949900728,
        "Mean Anomaly(deg)": 208.07532674500132,
        "RAAN(deg)": 69.94967930248512,
        "Satellite Name": "Starlink Shell 1 317",
        "Satellite Number": 317,
        "Semi-Major Axis(m)": 6931778.249405717,
        "Time(s)": 970
    },
    {
        "Altitude(m)": 559835.7977697991,
        "Argument of Periapsis(deg)": 0.034160690992101214,
        "Eccentricity": 0.0,
        "Inclination(deg)": 53.0,
        "Latitude(deg)": -22.76786466615326,
        "Longitude(deg)": 164.21825876152062,
        "Mean Anomaly(deg)": 208.7021579485581,
        "RAAN(deg)": 69.94916053240766,
        "Satellite Name": "Starlink Shell 1 317",
        "Satellite Number": 317,
        "Semi-Major Axis(m)": 6931778.249405717,
        "Time(s)": 980
    },
    {
        "Altitude(m)": 560001.2491519288,
        "Argument of Periapsis(deg)": 0.034509269471612446,
        "Eccentricity": 0.0,
        "Inclination(deg)": 53.0,
        "Latitude(deg)": -23.244275310125833,
        "Longitude(deg)": 164.62047788941632,
        "Mean Anomaly(deg)": 209.32898915211481,
        "RAAN(deg)": 69.94864176233018,
        "Satellite Name": "Starlink Shell 1 317",
        "Satellite Number": 317,
        "Semi-Major Axis(m)": 6931778.249405717,
        "Time(s)": 990
    }
]